[{"OBJECT_NAME":"O3B FM10","OBJECT_ID":"2014-083A","EPOCH":"2026-04-25T14:06:54.972000","MEAN_MOTION":5.00115287,"ECCENTRICITY":0.00026536,"INCLINATION":0.0389,"RA_OF_ASC_NODE":337.7556,"ARG_OF_PERICENTER":57.6099,"MEAN_ANOMALY":324.6504,"EPHEMERIS_TYPE":0,"CLASSIFICATION_TYPE":"U","NORAD_CAT_ID":40348,"ELEMENT_SET_NO":999,"REV_AT_EPOCH":20726,"BSTAR":0,"MEAN_MOTION_DOT":-2.7e-7,"MEAN_MOTION_DDOT":0},{"OBJECT_NAME":"O3B FM11","OBJECT_ID":"2014-083B","EPOCH":"2026-04-25T19:13:01.518528","MEAN_MOTION":5.00115551,"ECCENTRICITY":0.00029198,"INCLINATION":0.0578,"RA_OF_ASC_NODE":359.4196,"ARG_OF_PERICENTER":21.5522,"MEAN_ANOMALY":339.0384,"EPHEMERIS_TYPE":0,"CLASSIFICATION_TYPE":"U","NORAD_CAT_ID":40349,"ELEMENT_SET_NO":999,"REV_AT_EPOCH":20729,"BSTAR":0,"MEAN_MOTION_DOT":-2.7e-7,"MEAN_MOTION_DDOT":0},{"OBJECT_NAME":"O3B FM12","OBJECT_ID":"2014-083C","EPOCH":"2026-04-25T19:51:59.223456","MEAN_MOTION":5.0011593,"ECCENTRICITY":0.00025523,"INCLINATION":0.057,"RA_OF_ASC_NODE":359.0554,"ARG_OF_PERICENTER":32.1526,"MEAN_ANOMALY":328.8055,"EPHEMERIS_TYPE":0,"CLASSIFICATION_TYPE":"U","NORAD_CAT_ID":40350,"ELEMENT_SET_NO":999,"REV_AT_EPOCH":20730,"BSTAR":0,"MEAN_MOTION_DOT":-2.7e-7,"MEAN_MOTION_DDOT":0},{"OBJECT_NAME":"O3B FM9","OBJECT_ID":"2014-083D","EPOCH":"2026-04-25T15:42:46.962144","MEAN_MOTION":5.00115907,"ECCENTRICITY":0.00027079,"INCLINATION":0.059,"RA_OF_ASC_NODE":359.175,"ARG_OF_PERICENTER":34.7092,"MEAN_ANOMALY":326.1314,"EPHEMERIS_TYPE":0,"CLASSIFICATION_TYPE":"U","NORAD_CAT_ID":40351,"ELEMENT_SET_NO":999,"REV_AT_EPOCH":20744,"BSTAR":0,"MEAN_MOTION_DOT":-2.7e-7,"MEAN_MOTION_DDOT":0},{"OBJECT_NAME":"ASTRA 2G","OBJECT_ID":"2014-089A","EPOCH":"2026-04-25T20:35:23.648640","MEAN_MOTION":1.00270717,"ECCENTRICITY":0.00047323,"INCLINATION":0.0562,"RA_OF_ASC_NODE":28.135,"ARG_OF_PERICENTER":15.166,"MEAN_ANOMALY":147.599,"EPHEMERIS_TYPE":0,"CLASSIFICATION_TYPE":"U","NORAD_CAT_ID":40364,"ELEMENT_SET_NO":999,"REV_AT_EPOCH":4144,"BSTAR":0,"MEAN_MOTION_DOT":1.36e-6,"MEAN_MOTION_DDOT":0},{"OBJECT_NAME":"SES-9","OBJECT_ID":"2016-013A","EPOCH":"2026-04-25T22:34:21.631296","MEAN_MOTION":1.00270312,"ECCENTRICITY":0.00019963,"INCLINATION":0.0164,"RA_OF_ASC_NODE":285.3139,"ARG_OF_PERICENTER":134.1316,"MEAN_ANOMALY":241.3811,"EPHEMERIS_TYPE":0,"CLASSIFICATION_TYPE":"U","NORAD_CAT_ID":41380,"ELEMENT_SET_NO":999,"REV_AT_EPOCH":3691,"BSTAR":0,"MEAN_MOTION_DOT":-3.58e-6,"MEAN_MOTION_DDOT":0},{"OBJECT_NAME":"SES-10","OBJECT_ID":"2017-017A","EPOCH":"2026-04-25T21:50:53.909088","MEAN_MOTION":1.00272879,"ECCENTRICITY":0.00028053,"INCLINATION":0.0255,"RA_OF_ASC_NODE":14.9532,"ARG_OF_PERICENTER":32.7215,"MEAN_ANOMALY":67.0762,"EPHEMERIS_TYPE":0,"CLASSIFICATION_TYPE":"U","NORAD_CAT_ID":42432,"ELEMENT_SET_NO":999,"REV_AT_EPOCH":3323,"BSTAR":0,"MEAN_MOTION_DOT":-2.86e-6,"MEAN_MOTION_DDOT":0},{"OBJECT_NAME":"SES-15","OBJECT_ID":"2017-026A","EPOCH":"2026-04-25T16:25:07.953312","MEAN_MOTION":1.00270298,"ECCENTRICITY":6.229e-5,"INCLINATION":0.0249,"RA_OF_ASC_NODE":331.2396,"ARG_OF_PERICENTER":35.8861,"MEAN_ANOMALY":323.6957,"EPHEMERIS_TYPE":0,"CLASSIFICATION_TYPE":"U","NORAD_CAT_ID":42709,"ELEMENT_SET_NO":999,"REV_AT_EPOCH":690,"BSTAR":0,"MEAN_MOTION_DOT":4.6e-7,"MEAN_MOTION_DDOT":0},{"OBJECT_NAME":"SES-11 (ECHOSTAR 105)","OBJECT_ID":"2017-063A","EPOCH":"2026-04-25T21:40:02.449632","MEAN_MOTION":1.00269605,"ECCENTRICITY":0.00028686,"INCLINATION":0.0185,"RA_OF_ASC_NODE":67.3828,"ARG_OF_PERICENTER":354.3977,"MEAN_ANOMALY":12.1907,"EPHEMERIS_TYPE":0,"CLASSIFICATION_TYPE":"U","NORAD_CAT_ID":42967,"ELEMENT_SET_NO":999,"REV_AT_EPOCH":3119,"BSTAR":0,"MEAN_MOTION_DOT":0,"MEAN_MOTION_DDOT":0},{"OBJECT_NAME":"SES-14","OBJECT_ID":"2018-012B","EPOCH":"2026-04-25T21:56:23.381664","MEAN_MOTION":1.00271525,"ECCENTRICITY":9.423e-5,"INCLINATION":0.0236,"RA_OF_ASC_NODE":64.2246,"ARG_OF_PERICENTER":323.9892,"MEAN_ANOMALY":107.3152,"EPHEMERIS_TYPE":0,"CLASSIFICATION_TYPE":"U","NORAD_CAT_ID":43175,"ELEMENT_SET_NO":999,"REV_AT_EPOCH":650,"BSTAR":0,"MEAN_MOTION_DOT":-2.92e-6,"MEAN_MOTION_DDOT":0},{"OBJECT_NAME":"O3B FM15","OBJECT_ID":"2018-024A","EPOCH":"2026-04-25T17:18:57.033216","MEAN_MOTION":5.00115745,"ECCENTRICITY":0.00026395,"INCLINATION":0.051,"RA_OF_ASC_NODE":4.1856,"ARG_OF_PERICENTER":27.8727,"MEAN_ANOMALY":327.956,"EPHEMERIS_TYPE":0,"CLASSIFICATION_TYPE":"U","NORAD_CAT_ID":43231,"ELEMENT_SET_NO":999,"REV_AT_EPOCH":14840,"BSTAR":0,"MEAN_MOTION_DOT":-2.7e-7,"MEAN_MOTION_DDOT":0},{"OBJECT_NAME":"O3B FM16","OBJECT_ID":"2018-024B","EPOCH":"2026-04-25T18:34:20.416224","MEAN_MOTION":5.00115781,"ECCENTRICITY":0.00026859,"INCLINATION":0.0487,"RA_OF_ASC_NODE":8.2295,"ARG_OF_PERICENTER":22.4728,"MEAN_ANOMALY":329.3116,"EPHEMERIS_TYPE":0,"CLASSIFICATION_TYPE":"U","NORAD_CAT_ID":43232,"ELEMENT_SET_NO":999,"REV_AT_EPOCH":14832,"BSTAR":0,"MEAN_MOTION_DOT":-2.7e-7,"MEAN_MOTION_DDOT":0},{"OBJECT_NAME":"O3B FM14","OBJECT_ID":"2018-024C","EPOCH":"2026-04-25T00:21:41.548608","MEAN_MOTION":5.00115692,"ECCENTRICITY":0.00028613,"INCLINATION":0.0471,"RA_OF_ASC_NODE":8.1994,"ARG_OF_PERICENTER":26.7396,"MEAN_ANOMALY":325.0779,"EPHEMERIS_TYPE":0,"CLASSIFICATION_TYPE":"U","NORAD_CAT_ID":43233,"ELEMENT_SET_NO":999,"REV_AT_EPOCH":14829,"BSTAR":0,"MEAN_MOTION_DOT":-2.7e-7,"MEAN_MOTION_DDOT":0},{"OBJECT_NAME":"O3B FM13","OBJECT_ID":"2018-024D","EPOCH":"2026-04-25T01:56:31.995168","MEAN_MOTION":5.00115557,"ECCENTRICITY":0.00035963,"INCLINATION":0.0559,"RA_OF_ASC_NODE":329.1327,"ARG_OF_PERICENTER":20.8365,"MEAN_ANOMALY":10.0218,"EPHEMERIS_TYPE":0,"CLASSIFICATION_TYPE":"U","NORAD_CAT_ID":43234,"ELEMENT_SET_NO":999,"REV_AT_EPOCH":14840,"BSTAR":0,"MEAN_MOTION_DOT":-2.7e-7,"MEAN_MOTION_DDOT":0},{"OBJECT_NAME":"SES-12","OBJECT_ID":"2018-049A","EPOCH":"2026-04-25T23:36:31.463136","MEAN_MOTION":1.00271361,"ECCENTRICITY":0.00013007,"INCLINATION":0.0161,"RA_OF_ASC_NODE":69.6107,"ARG_OF_PERICENTER":249.8261,"MEAN_ANOMALY":343.6976,"EPHEMERIS_TYPE":0,"CLASSIFICATION_TYPE":"U","NORAD_CAT_ID":43488,"ELEMENT_SET_NO":999,"REV_AT_EPOCH":2889,"BSTAR":0,"MEAN_MOTION_DOT":0,"MEAN_MOTION_DDOT":0},{"OBJECT_NAME":"O3B FM20","OBJECT_ID":"2019-020A","EPOCH":"2026-04-25T20:10:33.494880","MEAN_MOTION":5.00115504,"ECCENTRICITY":0.00025897,"INCLINATION":0.0532,"RA_OF_ASC_NODE":1.295,"ARG_OF_PERICENTER":23.226,"MEAN_ANOMALY":335.4896,"EPHEMERIS_TYPE":0,"CLASSIFICATION_TYPE":"U","NORAD_CAT_ID":44112,"ELEMENT_SET_NO":999,"REV_AT_EPOCH":12895,"BSTAR":0,"MEAN_MOTION_DOT":-2.7e-7,"MEAN_MOTION_DDOT":0},{"OBJECT_NAME":"O3B FM19","OBJECT_ID":"2019-020B","EPOCH":"2026-04-21T16:04:51.104352","MEAN_MOTION":5.00115966,"ECCENTRICITY":0.0003491,"INCLINATION":0.0716,"RA_OF_ASC_NODE":348.2754,"ARG_OF_PERICENTER":26.5306,"MEAN_ANOMALY":345.2041,"EPHEMERIS_TYPE":0,"CLASSIFICATION_TYPE":"U","NORAD_CAT_ID":44113,"ELEMENT_SET_NO":999,"REV_AT_EPOCH":12861,"BSTAR":0,"MEAN_MOTION_DOT":-2.2e-7,"MEAN_MOTION_DDOT":0}]
